[{"OBJECT_NAME":"EAGLET-I","OBJECT_ID":"2018-099AJ","EPOCH":"2026-03-09T16:28:56.807904","MEAN_MOTION":15.12108145,"ECCENTRICITY":0.00104863,"INCLINATION":97.4369,"RA_OF_ASC_NODE":120.9821,"ARG_OF_PERICENTER":336.8524,"MEAN_ANOMALY":23.2233,"EPHEMERIS_TYPE":0,"CLASSIFICATION_TYPE":"U","NORAD_CAT_ID":43790,"ELEMENT_SET_NO":999,"REV_AT_EPOCH":39729,"BSTAR":0.0003526184,"MEAN_MOTION_DOT":6.017e-5,"MEAN_MOTION_DDOT":0},{"OBJECT_NAME":"STARLINK-4649","OBJECT_ID":"2022-114P","EPOCH":"2026-03-09T23:14:08.042496","MEAN_MOTION":15.0883751,"ECCENTRICITY":0.00013192,"INCLINATION":53.2183,"RA_OF_ASC_NODE":302.8571,"ARG_OF_PERICENTER":79.5962,"MEAN_ANOMALY":280.5179,"EPHEMERIS_TYPE":0,"CLASSIFICATION_TYPE":"U","NORAD_CAT_ID":53831,"ELEMENT_SET_NO":999,"REV_AT_EPOCH":19287,"BSTAR":1.0768866e-5,"MEAN_MOTION_DOT":-1.17e-6,"MEAN_MOTION_DDOT":0}]
